[
    {
        "Altitude(m)": 612502.2519395412,
        "Argument of Periapsis(deg)": 0.0,
        "Eccentricity": 0.0,
        "Inclination(deg)": 60.0,
        "Latitude(deg)": -28.136158645134323,
        "Longitude(deg)": -92.85176174068914,
        "Mean Anomaly(deg)": 327.2727,
        "RAAN(deg)": 25.0,
        "Satellite Name": "Test1 130",
        "Satellite Number": 130,
        "Semi-Major Axis(m)": 6980739.136638005,
        "Time(s)": 0
    },
    {
        "Altitude(m)": 612308.6991705192,
        "Argument of Periapsis(deg)": 0.00010418945913296404,
        "Eccentricity": 0.0,
        "Inclination(deg)": 60.0,
        "Latitude(deg)": -27.62321409295607,
        "Longitude(deg)": -92.49828675967916,
        "Mean Anomaly(deg)": 327.8928061454618,
        "RAAN(deg)": 24.99957995086026,
        "Satellite Name": "Test1 130",
        "Satellite Number": 130,
        "Semi-Major Axis(m)": 6980739.136638005,
        "Time(s)": 10
    }
]